CCSDS_OMM_VERS = 2.0
CREATION_DATE  = 
ORIGINATOR     = 

OBJECT_NAME    = UNKNOWN
OBJECT_ID      = 
CENTER_NAME    = EARTH
REF_FRAME      = TEME
TIME_SYSTEM    = UTC
MEAN_ELEMENT_THEORY = SGP/SGP4

EPOCH          = 2026-03-17T13:11:49.647552
MEAN_MOTION    = 12.95520011
ECCENTRICITY   = .00329504
INCLINATION    = 90.2459
RA_OF_ASC_NODE = 8.0358
ARG_OF_PERICENTER = 20.2154
MEAN_ANOMALY   = 340.0262

EPHEMERIS_TYPE = 0
CLASSIFICATION_TYPE = U
NORAD_CAT_ID   = 270091
ELEMENT_SET_NO = 999
REV_AT_EPOCH   = 29814
BSTAR          = -.1479157E-3
MEAN_MOTION_DOT = -.34E-6
MEAN_MOTION_DDOT = 0

CCSDS_OMM_VERS = 2.0
CREATION_DATE  = 
ORIGINATOR     = 

OBJECT_NAME    = UNKNOWN
OBJECT_ID      = 
CENTER_NAME    = EARTH
REF_FRAME      = TEME
TIME_SYSTEM    = UTC
MEAN_ELEMENT_THEORY = SGP/SGP4

EPOCH          = 2026-03-16T01:01:00.825888
MEAN_MOTION    = 12.92576056
ECCENTRICITY   = .00288574
INCLINATION    = 90.2466
RA_OF_ASC_NODE = 3.9315
ARG_OF_PERICENTER = 161.6136
MEAN_ANOMALY   = 198.6032

EPHEMERIS_TYPE = 0
CLASSIFICATION_TYPE = U
NORAD_CAT_ID   = 270093
ELEMENT_SET_NO = 999
REV_AT_EPOCH   = 29723
BSTAR          = .19826342E-3
MEAN_MOTION_DOT = .61E-6
MEAN_MOTION_DDOT = 0

CCSDS_OMM_VERS = 2.0
CREATION_DATE  = 
ORIGINATOR     = 

OBJECT_NAME    = UNKNOWN
OBJECT_ID      = 
CENTER_NAME    = EARTH
REF_FRAME      = TEME
TIME_SYSTEM    = UTC
MEAN_ELEMENT_THEORY = SGP/SGP4

EPOCH          = 2026-03-02T15:24:42.967872
MEAN_MOTION    = 12.23916221
ECCENTRICITY   = .01193656
INCLINATION    = 102.5939
RA_OF_ASC_NODE = 42.6413
ARG_OF_PERICENTER = 120.0620
MEAN_ANOMALY   = 241.2332

EPHEMERIS_TYPE = 0
CLASSIFICATION_TYPE = U
NORAD_CAT_ID   = 270094
ELEMENT_SET_NO = 999
REV_AT_EPOCH   = 27987
BSTAR          = .40484698E-3
MEAN_MOTION_DOT = 0
MEAN_MOTION_DDOT = 0

CCSDS_OMM_VERS = 2.0
CREATION_DATE  = 
ORIGINATOR     = 

OBJECT_NAME    = UNKNOWN
OBJECT_ID      = 
CENTER_NAME    = EARTH
REF_FRAME      = TEME
TIME_SYSTEM    = UTC
MEAN_ELEMENT_THEORY = SGP/SGP4

EPOCH          = 2026-03-17T13:42:20.971584
MEAN_MOTION    = 12.97320410
ECCENTRICITY   = .00266395
INCLINATION    = 90.2544
RA_OF_ASC_NODE = 9.8235
ARG_OF_PERICENTER = 340.9263
MEAN_ANOMALY   = 19.0858

EPHEMERIS_TYPE = 0
CLASSIFICATION_TYPE = U
NORAD_CAT_ID   = 270095
ELEMENT_SET_NO = 999
REV_AT_EPOCH   = 29836
BSTAR          = .24022072E-2
MEAN_MOTION_DOT = .704E-5
MEAN_MOTION_DDOT = 0

CCSDS_OMM_VERS = 2.0
CREATION_DATE  = 
ORIGINATOR     = 

OBJECT_NAME    = UNKNOWN
OBJECT_ID      = 
CENTER_NAME    = EARTH
REF_FRAME      = TEME
TIME_SYSTEM    = UTC
MEAN_ELEMENT_THEORY = SGP/SGP4

EPOCH          = 2026-03-15T18:53:14.474112
MEAN_MOTION    = 14.32720383
ECCENTRICITY   = .00133732
INCLINATION    = 98.6792
RA_OF_ASC_NODE = 93.8982
ARG_OF_PERICENTER = 11.3742
MEAN_ANOMALY   = 348.7742

EPHEMERIS_TYPE = 0
CLASSIFICATION_TYPE = U
NORAD_CAT_ID   = 270096
ELEMENT_SET_NO = 999
REV_AT_EPOCH   = 32875
BSTAR          = .13043649E-3
MEAN_MOTION_DOT = .311E-5
MEAN_MOTION_DDOT = 0

CCSDS_OMM_VERS = 2.0
CREATION_DATE  = 
ORIGINATOR     = 

OBJECT_NAME    = UNKNOWN
OBJECT_ID      = 
CENTER_NAME    = EARTH
REF_FRAME      = TEME
TIME_SYSTEM    = UTC
MEAN_ELEMENT_THEORY = SGP/SGP4

EPOCH          = 2026-03-16T13:29:21.925248
MEAN_MOTION    = 12.99583988
ECCENTRICITY   = .001282
INCLINATION    = 90.3020
RA_OF_ASC_NODE = 18.7759
ARG_OF_PERICENTER = 213.9087
MEAN_ANOMALY   = 146.1217

EPHEMERIS_TYPE = 0
CLASSIFICATION_TYPE = U
NORAD_CAT_ID   = 270097
ELEMENT_SET_NO = 999
REV_AT_EPOCH   = 29812
BSTAR          = -.75283218E-3
MEAN_MOTION_DOT = -.218E-5
MEAN_MOTION_DDOT = 0

CCSDS_OMM_VERS = 2.0
CREATION_DATE  = 
ORIGINATOR     = 

OBJECT_NAME    = UNKNOWN
OBJECT_ID      = 
CENTER_NAME    = EARTH
REF_FRAME      = TEME
TIME_SYSTEM    = UTC
MEAN_ELEMENT_THEORY = SGP/SGP4

EPOCH          = 2026-03-15T14:16:39.631296
MEAN_MOTION    = 14.42214489
ECCENTRICITY   = .0162034
INCLINATION    = 98.2850
RA_OF_ASC_NODE = 192.4673
ARG_OF_PERICENTER = 48.8625
MEAN_ANOMALY   = 312.6420

EPHEMERIS_TYPE = 0
CLASSIFICATION_TYPE = U
NORAD_CAT_ID   = 270098
ELEMENT_SET_NO = 999
REV_AT_EPOCH   = 32743
BSTAR          = .11286862E-2
MEAN_MOTION_DOT = .4309E-4
MEAN_MOTION_DDOT = 0

CCSDS_OMM_VERS = 2.0
CREATION_DATE  = 
ORIGINATOR     = 

OBJECT_NAME    = UNKNOWN
OBJECT_ID      = 
CENTER_NAME    = EARTH
REF_FRAME      = TEME
TIME_SYSTEM    = UTC
MEAN_ELEMENT_THEORY = SGP/SGP4

EPOCH          = 2026-03-17T13:58:09.392160
MEAN_MOTION    = 12.55385413
ECCENTRICITY   = .02076249
INCLINATION    = 102.3314
RA_OF_ASC_NODE = 189.0829
ARG_OF_PERICENTER = 230.8106
MEAN_ANOMALY   = 127.4362

EPHEMERIS_TYPE = 0
CLASSIFICATION_TYPE = U
NORAD_CAT_ID   = 270099
ELEMENT_SET_NO = 999
REV_AT_EPOCH   = 28742
BSTAR          = .19977763E-1
MEAN_MOTION_DOT = .3488E-4
MEAN_MOTION_DDOT = 0

CCSDS_OMM_VERS = 2.0
CREATION_DATE  = 
ORIGINATOR     = 

OBJECT_NAME    = UNKNOWN
OBJECT_ID      = 
CENTER_NAME    = EARTH
REF_FRAME      = TEME
TIME_SYSTEM    = UTC
MEAN_ELEMENT_THEORY = SGP/SGP4

EPOCH          = 2026-03-14T16:32:17.507328
MEAN_MOTION    = 12.38945606
ECCENTRICITY   = .00949281
INCLINATION    = 102.3723
RA_OF_ASC_NODE = 71.1723
ARG_OF_PERICENTER = 118.0473
MEAN_ANOMALY   = 243.0227

EPHEMERIS_TYPE = 0
CLASSIFICATION_TYPE = U
NORAD_CAT_ID   = 270101
ELEMENT_SET_NO = 999
REV_AT_EPOCH   = 28484
BSTAR          = .19704145E-3
MEAN_MOTION_DOT = -.2E-6
MEAN_MOTION_DDOT = 0

CCSDS_OMM_VERS = 2.0
CREATION_DATE  = 
ORIGINATOR     = 

OBJECT_NAME    = UNKNOWN
OBJECT_ID      = 
CENTER_NAME    = EARTH
REF_FRAME      = TEME
TIME_SYSTEM    = UTC
MEAN_ELEMENT_THEORY = SGP/SGP4

EPOCH          = 2026-03-17T03:00:59.988384
MEAN_MOTION    = 13.03100819
ECCENTRICITY   = .00339781
INCLINATION    = 90.2992
RA_OF_ASC_NODE = 32.2169
ARG_OF_PERICENTER = 34.3164
MEAN_ANOMALY   = 326.0145

EPHEMERIS_TYPE = 0
CLASSIFICATION_TYPE = U
NORAD_CAT_ID   = 270103
ELEMENT_SET_NO = 999
REV_AT_EPOCH   = 29968
BSTAR          = -.16646528E-2
MEAN_MOTION_DOT = -.517E-5
MEAN_MOTION_DDOT = 0

CCSDS_OMM_VERS = 2.0
CREATION_DATE  = 
ORIGINATOR     = 

OBJECT_NAME    = UNKNOWN
OBJECT_ID      = 
CENTER_NAME    = EARTH
REF_FRAME      = TEME
TIME_SYSTEM    = UTC
MEAN_ELEMENT_THEORY = SGP/SGP4

EPOCH          = 2026-03-17T12:40:27.428736
MEAN_MOTION    = 12.96162445
ECCENTRICITY   = .00281393
INCLINATION    = 90.2616
RA_OF_ASC_NODE = 13.8760
ARG_OF_PERICENTER = 341.3000
MEAN_ANOMALY   = 18.7083

EPHEMERIS_TYPE = 0
CLASSIFICATION_TYPE = U
NORAD_CAT_ID   = 270104
ELEMENT_SET_NO = 999
REV_AT_EPOCH   = 29826
BSTAR          = -.41215933E-3
MEAN_MOTION_DOT = -.11E-5
MEAN_MOTION_DDOT = 0

CCSDS_OMM_VERS = 2.0
CREATION_DATE  = 
ORIGINATOR     = 

OBJECT_NAME    = UNKNOWN
OBJECT_ID      = 
CENTER_NAME    = EARTH
REF_FRAME      = TEME
TIME_SYSTEM    = UTC
MEAN_ELEMENT_THEORY = SGP/SGP4

EPOCH          = 2026-03-17T08:20:26.979072
MEAN_MOTION    = 13.05963308
ECCENTRICITY   = .00189011
INCLINATION    = 90.0188
RA_OF_ASC_NODE = 311.2046
ARG_OF_PERICENTER = 325.3342
MEAN_ANOMALY   = 34.6551

EPHEMERIS_TYPE = 0
CLASSIFICATION_TYPE = U
NORAD_CAT_ID   = 270108
ELEMENT_SET_NO = 999
REV_AT_EPOCH   = 30033
BSTAR          = .21024928E-2
MEAN_MOTION_DOT = .697E-5
MEAN_MOTION_DDOT = 0

CCSDS_OMM_VERS = 2.0
CREATION_DATE  = 
ORIGINATOR     = 

OBJECT_NAME    = UNKNOWN
OBJECT_ID      = 
CENTER_NAME    = EARTH
REF_FRAME      = TEME
TIME_SYSTEM    = UTC
MEAN_ELEMENT_THEORY = SGP/SGP4

EPOCH          = 2026-03-17T01:41:25.462176
MEAN_MOTION    = 12.98416628
ECCENTRICITY   = .00291693
INCLINATION    = 90.2515
RA_OF_ASC_NODE = 10.9125
ARG_OF_PERICENTER = 263.9658
MEAN_ANOMALY   = 95.8138

EPHEMERIS_TYPE = 0
CLASSIFICATION_TYPE = U
NORAD_CAT_ID   = 270110
ELEMENT_SET_NO = 999
REV_AT_EPOCH   = 29853
BSTAR          = -.11938998E-2
MEAN_MOTION_DOT = -.345E-5
MEAN_MOTION_DDOT = 0

CCSDS_OMM_VERS = 2.0
CREATION_DATE  = 
ORIGINATOR     = 

OBJECT_NAME    = UNKNOWN
OBJECT_ID      = 
CENTER_NAME    = EARTH
REF_FRAME      = TEME
TIME_SYSTEM    = UTC
MEAN_ELEMENT_THEORY = SGP/SGP4

EPOCH          = 2026-03-13T06:53:39.956928
MEAN_MOTION    = 14.38970414
ECCENTRICITY   = .00203278
INCLINATION    = 98.4865
RA_OF_ASC_NODE = 91.6622
ARG_OF_PERICENTER = 201.6670
MEAN_ANOMALY   = 158.3659

EPHEMERIS_TYPE = 0
CLASSIFICATION_TYPE = U
NORAD_CAT_ID   = 270111
ELEMENT_SET_NO = 999
REV_AT_EPOCH   = 33026
BSTAR          = .16386942E-3
MEAN_MOTION_DOT = .463E-5
MEAN_MOTION_DDOT = 0

CCSDS_OMM_VERS = 2.0
CREATION_DATE  = 
ORIGINATOR     = 

OBJECT_NAME    = UNKNOWN
OBJECT_ID      = 
CENTER_NAME    = EARTH
REF_FRAME      = TEME
TIME_SYSTEM    = UTC
MEAN_ELEMENT_THEORY = SGP/SGP4

EPOCH          = 2026-03-18T01:22:02.941536
MEAN_MOTION    = 12.95314454
ECCENTRICITY   = .00292039
INCLINATION    = 90.2449
RA_OF_ASC_NODE = 2.7474
ARG_OF_PERICENTER = 116.8866
MEAN_ANOMALY   = 243.5243

EPHEMERIS_TYPE = 0
CLASSIFICATION_TYPE = U
NORAD_CAT_ID   = 270113
ELEMENT_SET_NO = 999
REV_AT_EPOCH   = 29766
BSTAR          = .186871E-4
MEAN_MOTION_DOT = .13E-6
MEAN_MOTION_DDOT = 0

CCSDS_OMM_VERS = 2.0
CREATION_DATE  = 
ORIGINATOR     = 

OBJECT_NAME    = UNKNOWN
OBJECT_ID      = 
CENTER_NAME    = EARTH
REF_FRAME      = TEME
TIME_SYSTEM    = UTC
MEAN_ELEMENT_THEORY = SGP/SGP4

EPOCH          = 2026-03-17T01:26:07.830240
MEAN_MOTION    = 12.95809278
ECCENTRICITY   = .00522635
INCLINATION    = 90.2472
RA_OF_ASC_NODE = 6.7403
ARG_OF_PERICENTER = 11.2372
MEAN_ANOMALY   = 348.9902

EPHEMERIS_TYPE = 0
CLASSIFICATION_TYPE = U
NORAD_CAT_ID   = 270114
ELEMENT_SET_NO = 999
REV_AT_EPOCH   = 29812
BSTAR          = -.56236881E-3
MEAN_MOTION_DOT = -.153E-5
MEAN_MOTION_DDOT = 0

